{
  "norad_id": 67513,
  "name": "STARLINK-36531",
  "history": [
    {
      "epoch": "2026-03-28T16:06:10.842048",
      "apogee_km": 483.9995902347264,
      "perigee_km": 481.8878868050242,
      "latitude_deg": -6.8460747792572265,
      "longitude_deg": -84.2879532801453,
      "semi_major_axis_km": 6861.080738519875,
      "eccentricity": 0.00015389,
      "inclination_deg": 43.0015,
      "raan_deg": 207.2945,
      "arg_perigee_deg": 258.1997,
      "mean_anomaly_deg": 101.8682,
      "mean_motion_rev_day": 15.27615186
    }
  ]
}